HST                     
1 20580U 90037B   26068.15977042  .00009063  00000+0  30023-3 0  9999
2 20580  28.4717  43.6133 0001837 120.9992 239.0785 15.29473555773239
STARLINK-34250          
1 64690U 25139AC  26068.43278345  .00024991  00000+0  85388-3 0  9992
2 64690  53.1585 128.3064 0001196  73.6942 286.4191 15.30168667 40240
