[{"OBJECT_NAME":"HST","OBJECT_ID":"1990-037B","EPOCH":"2026-03-09T03:50:04.164288","MEAN_MOTION":15.29473555,"ECCENTRICITY":0.00018372,"INCLINATION":28.4717,"RA_OF_ASC_NODE":43.6133,"ARG_OF_PERICENTER":120.9992,"MEAN_ANOMALY":239.0785,"EPHEMERIS_TYPE":0,"CLASSIFICATION_TYPE":"U","NORAD_CAT_ID":20580,"ELEMENT_SET_NO":999,"REV_AT_EPOCH":77323,"BSTAR":0.0003002261,"MEAN_MOTION_DOT":9.063e-5,"MEAN_MOTION_DDOT":0},{"OBJECT_NAME":"STARLINK-34250","OBJECT_ID":"2025-139AC","EPOCH":"2026-03-09T10:23:12.490080","MEAN_MOTION":15.30168667,"ECCENTRICITY":0.00011968,"INCLINATION":53.1585,"RA_OF_ASC_NODE":128.3064,"ARG_OF_PERICENTER":73.6942,"MEAN_ANOMALY":286.4191,"EPHEMERIS_TYPE":0,"CLASSIFICATION_TYPE":"U","NORAD_CAT_ID":64690,"ELEMENT_SET_NO":999,"REV_AT_EPOCH":4024,"BSTAR":0.00085387979,"MEAN_MOTION_DOT":0.00024991,"MEAN_MOTION_DDOT":0}]
